{
  "links": {
    "next": "https://api.nasa.gov/neo/rest/v1/feed?start_date=2017-07-18&end_date=2017-07-18&detailed=true&api_key=TxpAbzBJkgazWhEkL2WIyZW2rsnEFx2Ns7Wmrey0",
    "prev": "https://api.nasa.gov/neo/rest/v1/feed?start_date=2017-07-16&end_date=2017-07-16&detailed=true&api_key=TxpAbzBJkgazWhEkL2WIyZW2rsnEFx2Ns7Wmrey0",
    "self": "https://api.nasa.gov/neo/rest/v1/feed?start_date=2017-07-17&end_date=2017-07-17&detailed=true&api_key=TxpAbzBJkgazWhEkL2WIyZW2rsnEFx2Ns7Wmrey0"
  },
  "element_count": 9,
  "near_earth_objects": {
    "2017-07-17": [
      {
        "links": {
          "self": "https://api.nasa.gov/neo/rest/v1/neo/2304640?api_key=TxpAbzBJkgazWhEkL2WIyZW2rsnEFx2Ns7Wmrey0"
        },
        "neo_reference_id": "2304640",
        "name": "304640 (2006 WW1)",
        "nasa_jpl_url": "http://ssd.jpl.nasa.gov/sbdb.cgi?sstr=2304640",
        "absolute_magnitude_h": 19.1,
        "estimated_diameter": {
          "kilometers": {
            "estimated_diameter_min": 0.4023045798,
            "estimated_diameter_max": 0.8995803882
          },
          "meters": {
            "estimated_diameter_min": 402.3045798343,
            "estimated_diameter_max": 899.5803881691
          },
          "miles": {
            "estimated_diameter_min": 0.2499803991,
            "estimated_diameter_max": 0.5589731654
          },
          "feet": {
            "estimated_diameter_min": 1319.8969577037,
            "estimated_diameter_max": 2951.3793207207
          }
        },
        "is_potentially_hazardous_asteroid": false,
        "close_approach_data": [
          {
            "close_approach_date": "2017-07-17",
            "epoch_date_close_approach": 1500274800000,
            "relative_velocity": {
              "kilometers_per_second": "19.6699377674",
              "kilometers_per_hour": "70811.7759624733",
              "miles_per_hour": "43999.6837917935"
            },
            "miss_distance": {
              "astronomical": "0.203295326",
              "lunar": "79.0818786621",
              "kilometers": "30412548",
              "miles": "18897480"
            },
            "orbiting_body": "Earth"
          }
        ],
        "orbital_data": {
          "orbit_id": "48",
          "orbit_determination_date": "2017-04-06 09:24:02",
          "orbit_uncertainty": "0",
          "minimum_orbit_intersection": ".118253",
          "jupiter_tisserand_invariant": "4.559",
          "epoch_osculation": "2458000.5",
          "eccentricity": ".5044628910940326",
          "semi_major_axis": "1.418055065482512",
          "inclination": "9.402418899503095",
          "ascending_node_longitude": "240.389486290887",
          "orbital_period": "616.7910599377587",
          "perihelion_distance": ".7026989074186664",
          "perihelion_argument": "322.5271665896619",
          "aphelion_distance": "2.133411223546358",
          "perihelion_time": "2457899.837315155132",
          "mean_anomaly": "58.75339137990971",
          "mean_motion": ".5836660473586114",
          "equinox": "J2000"
        }
      },
      {
        "links": {
          "self": "https://api.nasa.gov/neo/rest/v1/neo/3335045?api_key=TxpAbzBJkgazWhEkL2WIyZW2rsnEFx2Ns7Wmrey0"
        },
        "neo_reference_id": "3335045",
        "name": "(2006 KJ89)",
        "nasa_jpl_url": "http://ssd.jpl.nasa.gov/sbdb.cgi?sstr=3335045",
        "absolute_magnitude_h": 23.9,
        "estimated_diameter": {
          "kilometers": {
            "estimated_diameter_min": 0.04411182,
            "estimated_diameter_max": 0.0986370281
          },
          "meters": {
            "estimated_diameter_min": 44.1118199997,
            "estimated_diameter_max": 98.6370281305
          },
          "miles": {
            "estimated_diameter_min": 0.0274098057,
            "estimated_diameter_max": 0.0612901888
          },
          "feet": {
            "estimated_diameter_min": 144.7238235278,
            "estimated_diameter_max": 323.6123073718
          }
        },
        "is_potentially_hazardous_asteroid": false,
        "close_approach_data": [
          {
            "close_approach_date": "2017-07-17",
            "epoch_date_close_approach": 1500274800000,
            "relative_velocity": {
              "kilometers_per_second": "12.9617448772",
              "kilometers_per_hour": "46662.2815577987",
              "miles_per_hour": "28994.1271157333"
            },
            "miss_distance": {
              "astronomical": "0.2619444588",
              "lunar": "101.8964004517",
              "kilometers": "39186336",
              "miles": "24349260"
            },
            "orbiting_body": "Earth"
          }
        ],
        "orbital_data": {
          "orbit_id": "12",
          "orbit_determination_date": "2017-04-06 09:08:33",
          "orbit_uncertainty": "6",
          "minimum_orbit_intersection": ".0880867",
          "jupiter_tisserand_invariant": "3.316",
          "epoch_osculation": "2458000.5",
          "eccentricity": ".5452722363757083",
          "semi_major_axis": "2.384005920323351",
          "inclination": "2.992136355594452",
          "ascending_node_longitude": "163.3798156919148",
          "orbital_period": "1344.495711276913",
          "perihelion_distance": "1.084073680615709",
          "perihelion_argument": "95.65115152640881",
          "aphelion_distance": "3.683938160030993",
          "perihelion_time": "2457930.426609780396",
          "mean_anomaly": "18.76273778151302",
          "mean_motion": ".2677583847836122",
          "equinox": "J2000"
        }
      },
      {
        "links": {
          "self": "https://api.nasa.gov/neo/rest/v1/neo/3342323?api_key=TxpAbzBJkgazWhEkL2WIyZW2rsnEFx2Ns7Wmrey0"
        },
        "neo_reference_id": "3342323",
        "name": "(2006 SF6)",
        "nasa_jpl_url": "http://ssd.jpl.nasa.gov/sbdb.cgi?sstr=3342323",
        "absolute_magnitude_h": 19.9,
        "estimated_diameter": {
          "kilometers": {
            "estimated_diameter_min": 0.2783267681,
            "estimated_diameter_max": 0.6223575734
          },
          "meters": {
            "estimated_diameter_min": 278.3267680719,
            "estimated_diameter_max": 622.3575733667
          },
          "miles": {
            "estimated_diameter_min": 0.1729441822,
            "estimated_diameter_max": 0.3867149477
          },
          "feet": {
            "estimated_diameter_min": 913.1455937611,
            "estimated_diameter_max": 2041.8556210042
          }
        },
        "is_potentially_hazardous_asteroid": true,
        "close_approach_data": [
          {
            "close_approach_date": "2017-07-17",
            "epoch_date_close_approach": 1500274800000,
            "relative_velocity": {
              "kilometers_per_second": "12.1983761641",
              "kilometers_per_hour": "43914.154190881",
              "miles_per_hour": "27286.5476415505"
            },
            "miss_distance": {
              "astronomical": "0.1616278548",
              "lunar": "62.8732376099",
              "kilometers": "24179184",
              "miles": "15024248"
            },
            "orbiting_body": "Earth"
          }
        ],
        "orbital_data": {
          "orbit_id": "47",
          "orbit_determination_date": "2016-11-23 06:17:36",
          "orbit_uncertainty": "1",
          "minimum_orbit_intersection": ".0192516",
          "jupiter_tisserand_invariant": "6.297",
          "epoch_osculation": "2457800.5",
          "eccentricity": ".2805179209144277",
          "semi_major_axis": ".9492104597146842",
          "inclination": "5.866494141334809",
          "ascending_node_longitude": "228.1092388832922",
          "orbital_period": "337.7864309152485",
          "perihelion_distance": ".6829399150452928",
          "perihelion_argument": "305.6351423418996",
          "aphelion_distance": "1.215481004384076",
          "perihelion_time": "2457875.147563615001",
          "mean_anomaly": "280.4434505300095",
          "mean_motion": "1.065762171158157",
          "equinox": "J2000"
        }
      }
    ]
  }
}